{
  "type": "FeatureCollection",
  "features": [
    {
      "type": "Feature",
      "properties": {
        "norad_id": 66807,
        "name": "STARLINK-36000",
        "group": "last-30-days",
        "lat": -23.994122713747092,
        "lon": 36.794540196772125,
        "alt_km": 417.1630826215887,
        "timestamp": "2025-12-23T07:45:08.116635+00:00",
        "meta_object_name": "STARLINK-36000",
        "meta_object_id": "2025-278S",
        "meta_epoch": "2025-12-22T22:00:03.000096",
        "meta_mean_motion": 15.51597969,
        "meta_eccentricity": 0.00017014,
        "meta_inclination": 42.9993,
        "meta_ra_of_asc_node": 190.6397,
        "meta_arg_of_pericenter": 268.8178,
        "meta_mean_anomaly": 196.4037,
        "meta_ephemeris_type": 0,
        "meta_classification_type": "U",
        "meta_norad_cat_id": 66807,
        "meta_element_set_no": 999,
        "meta_rev_at_epoch": 465,
        "meta_bstar": -0.025883759,
        "meta_mean_motion_dot": -0.01411301,
        "meta_mean_motion_ddot": 0,
        "tle_line1": "1 66807U 25278S   25356.91670139 -.01411301  00000+0 -25884-1 0  9998",
        "tle_line2": "2 66807  42.9993 190.6397 0001701 268.8178 196.4037 15.51597969  4651"
      },
      "geometry": {
        "type": "Point",
        "coordinates": [
          36.794540196772125,
          -23.994122713747092
        ]
      }
    },
    {
      "type": "Feature",
      "properties": {
        "norad_id": 66808,
        "name": "STARLINK-36071",
        "group": "last-30-days",
        "lat": -25.13152987118791,
        "lon": 38.48317662758092,
        "alt_km": 417.2062915756287,
        "timestamp": "2025-12-23T07:45:08.116646+00:00",
        "meta_object_name": "STARLINK-36071",
        "meta_object_id": "2025-278T",
        "meta_epoch": "2025-12-22T22:00:03.000096",
        "meta_mean_motion": 15.51594311,
        "meta_eccentricity": 0.00017931,
        "meta_inclination": 42.9995,
        "meta_ra_of_asc_node": 190.635,
        "meta_arg_of_pericenter": 270.2785,
        "meta_mean_anomaly": 196.8625,
        "meta_ephemeris_type": 0,
        "meta_classification_type": "U",
        "meta_norad_cat_id": 66808,
        "meta_element_set_no": 999,
        "meta_rev_at_epoch": 459,
        "meta_bstar": -0.025803593,
        "meta_mean_motion_dot": -0.0140725,
        "meta_mean_motion_ddot": 0,
        "tle_line1": "1 66808U 25278T   25356.91670139 -.01407250  00000+0 -25804-1 0  9999",
        "tle_line2": "2 66808  42.9995 190.6350 0001793 270.2785 196.8625 15.51594311  4593"
      },
      "geometry": {
        "type": "Point",
        "coordinates": [
          38.48317662758092,
          -25.13152987118791
        ]
      }
    },
    {
      "type": "Feature",
      "properties": {
        "norad_id": 66809,
        "name": "STARLINK-35979",
        "group": "last-30-days",
        "lat": -28.41884824176166,
        "lon": 43.74104737646314,
        "alt_km": 417.05841808647347,
        "timestamp": "2025-12-23T07:45:08.116657+00:00",
        "meta_object_name": "STARLINK-35979",
        "meta_object_id": "2025-278U",
        "meta_epoch": "2025-12-22T22:00:03.000096",
        "meta_mean_motion": 15.51598986,
        "meta_eccentricity": 0.00021403,
        "meta_inclination": 42.9994,
        "meta_ra_of_asc_node": 190.619,
        "meta_arg_of_pericenter": 263.0481,
        "meta_mean_anomaly": 209.8462,
        "meta_ephemeris_type": 0,
        "meta_classification_type": "U",
        "meta_norad_cat_id": 66809,
        "meta_element_set_no": 999,
        "meta_rev_at_epoch": 459,
        "meta_bstar": -0.026206843,
        "meta_mean_motion_dot": -0.01427322,
        "meta_mean_motion_ddot": 0,
        "tle_line1": "1 66809U 25278U   25356.91670139 -.01427322  00000+0 -26207-1 0  9990",
        "tle_line2": "2 66809  42.9994 190.6190 0002140 263.0481 209.8462 15.51598986  4591"
      },
      "geometry": {
        "type": "Point",
        "coordinates": [
          43.74104737646314,
          -28.41884824176166
        ]
      }
    },
    {
      "type": "Feature",
      "properties": {
        "norad_id": 66810,
        "name": "STARLINK-36046",
        "group": "last-30-days",
        "lat": -26.25071151258866,
        "lon": 40.20507144924759,
        "alt_km": 417.3510427448891,
        "timestamp": "2025-12-23T07:45:08.116669+00:00",
        "meta_object_name": "STARLINK-36046",
        "meta_object_id": "2025-278V",
        "meta_epoch": "2025-12-22T22:00:03.000096",
        "meta_mean_motion": 15.5159329,
        "meta_eccentricity": 0.00016866,
        "meta_inclination": 42.9994,
        "meta_ra_of_asc_node": 190.6295,
        "meta_arg_of_pericenter": 273.0175,
        "meta_mean_anomaly": 196.0424,
        "meta_ephemeris_type": 0,
        "meta_classification_type": "U",
        "meta_norad_cat_id": 66810,
        "meta_element_set_no": 999,
        "meta_rev_at_epoch": 436,
        "meta_bstar": -0.025784314,
        "meta_mean_motion_dot": -0.01406215,
        "meta_mean_motion_ddot": 0,
        "tle_line1": "1 66810U 25278V   25356.91670139 -.01406215  00000+0 -25784-1 0  9999",
        "tle_line2": "2 66810  42.9994 190.6295 0001686 273.0175 196.0424 15.51593290  4367"
      },
      "geometry": {
        "type": "Point",
        "coordinates": [
          40.20507144924759,
          -26.25071151258866
        ]
      }
    },
    {
      "type": "Feature",
      "properties": {
        "norad_id": 66811,
        "name": "STARLINK-36045",
        "group": "last-30-days",
        "lat": -27.34786552901049,
        "lon": 41.95950969872501,
        "alt_km": 417.3411047071595,
        "timestamp": "2025-12-23T07:45:08.116679+00:00",
        "meta_object_name": "STARLINK-36045",
        "meta_object_id": "2025-278W",
        "meta_epoch": "2025-12-22T22:00:03.000096",
        "meta_mean_motion": 15.51595204,
        "meta_eccentricity": 0.00017281,
        "meta_inclination": 42.9995,
        "meta_ra_of_asc_node": 190.6251,
        "meta_arg_of_pericenter": 271.2176,
        "meta_mean_anomaly": 199.758,
        "meta_ephemeris_type": 0,
        "meta_classification_type": "U",
        "meta_norad_cat_id": 66811,
        "meta_element_set_no": 999,
        "meta_rev_at_epoch": 459,
        "meta_bstar": -0.025835409,
        "meta_mean_motion_dot": -0.0140882,
        "meta_mean_motion_ddot": 0,
        "tle_line1": "1 66811U 25278W   25356.91670139 -.01408820  00000+0 -25835-1 0  9991",
        "tle_line2": "2 66811  42.9995 190.6251 0001728 271.2176 199.7580 15.51595204  4594"
      },
      "geometry": {
        "type": "Point",
        "coordinates": [
          41.95950969872501,
          -27.34786552901049
        ]
      }
    },
    {
      "type": "Feature",
      "properties": {
        "norad_id": 66812,
        "name": "STARLINK-36054",
        "group": "last-30-days",
        "lat": -29.473771396837133,
        "lon": 45.5749351230367,
        "alt_km": 417.39429649888643,
        "timestamp": "2025-12-23T07:45:08.116690+00:00",
        "meta_object_name": "STARLINK-36054",
        "meta_object_id": "2025-278X",
        "meta_epoch": "2025-12-22T22:00:03.000096",
        "meta_mean_motion": 15.5160085,
        "meta_eccentricity": 0.00017328,
        "meta_inclination": 42.9994,
        "meta_ra_of_asc_node": 190.6155,
        "meta_arg_of_pericenter": 269.8674,
        "meta_mean_anomaly": 204.9402,
        "meta_ephemeris_type": 0,
        "meta_classification_type": "U",
        "meta_norad_cat_id": 66812,
        "meta_element_set_no": 999,
        "meta_rev_at_epoch": 459,
        "meta_bstar": -0.025995807,
        "meta_mean_motion_dot": -0.01416924,
        "meta_mean_motion_ddot": 0,
        "tle_line1": "1 66812U 25278X   25356.91670139 -.01416924  00000+0 -25996-1 0  9994",
        "tle_line2": "2 66812  42.9994 190.6155 0001732 269.8674 204.9402 15.51600850  4594"
      },
      "geometry": {
        "type": "Point",
        "coordinates": [
          45.5749351230367,
          -29.473771396837133
        ]
      }
    },
    {
      "type": "Feature",
      "properties": {
        "norad_id": 66813,
        "name": "STARLINK-36042",
        "group": "last-30-days",
        "lat": -30.498147005545512,
        "lon": 47.43619237793321,
        "alt_km": 417.5072496499897,
        "timestamp": "2025-12-23T07:45:08.116700+00:00",
        "meta_object_name": "STARLINK-36042",
        "meta_object_id": "2025-278Y",
        "meta_epoch": "2025-12-22T22:00:03.000096",
        "meta_mean_motion": 15.51598665,
        "meta_eccentricity": 0.0001761,
        "meta_inclination": 42.9994,
        "meta_ra_of_asc_node": 190.6101,
        "meta_arg_of_pericenter": 274.77,
        "meta_mean_anomaly": 201.9566,
        "meta_ephemeris_type": 0,
        "meta_classification_type": "U",
        "meta_norad_cat_id": 66813,
        "meta_element_set_no": 999,
        "meta_rev_at_epoch": 459,
        "meta_bstar": -0.025957262,
        "meta_mean_motion_dot": -0.01414952,
        "meta_mean_motion_ddot": 0,
        "tle_line1": "1 66813U 25278Y   25356.91670139 -.01414952  00000+0 -25957-1 0  9991",
        "tle_line2": "2 66813  42.9994 190.6101 0001761 274.7700 201.9566 15.51598665  4591"
      },
      "geometry": {
        "type": "Point",
        "coordinates": [
          47.43619237793321,
          -30.498147005545512
        ]
      }
    }
  ]
}